IRIDIUM 26              
1 24903U 97043A   26027.50679808  .00000766  00000+0  25021-3 0  9992
2 24903  86.3957  16.3175 0002392  85.6273 274.5197 14.37375000488968
IRIDIUM 22              
1 24907U 97043E   26027.48427406  .00000674  00000+0  22470-3 0  9991
2 24907  86.3955  20.0590 0002175  85.3742 274.7703 14.36162677488968
DUMMY MASS 1            
1 24925U 97048A   26027.49212486  .00000756  00000+0  80795-4 0  9993
2 24925  86.3322  31.5208 0008967  75.9036 284.3185 14.87230338538463
DUMMY MASS 2            
1 24926U 97048B   26027.49177635  .00000740  00000+0  79523-4 0  9990
2 24926  86.3320  33.1701 0009804  84.6996 275.5347 14.86980437538239
IRIDIUM 29              
1 24944U 97051A   26027.49477117  .00000644  00000+0  21200-3 0  9993
2 24944  86.3916  49.7193 0002031  90.6464 269.4966 14.36706420485479
IRIDIUM 33              
1 24946U 97051C   26027.51771384  .00000491  00000+0  16531-3 0  9992
2 24946  86.3831  48.9933 0009904  71.2092 289.0178 14.35074280484910
IRIDIUM 28              
1 24948U 97051E   26027.46635612  .00000636  00000+0  20562-3 0  9991
2 24948  86.3923  47.1192 0002748  85.6170 274.5342 14.37606823486063
IRIDIUM 36              
1 24967U 97056C   26027.18594676  .00000661  00000+0  21302-3 0  9991
2 24967  86.3927  78.8691 0002348  86.7226 273.4241 14.37834317484406
